{
  "type": "FeatureCollection",
  "features": [
    {
      "type": "Feature",
      "properties": {
        "norad_id": 30646,
        "name": "FENGYUN 1C DEB",
        "group": "fengyun-1c-debris",
        "lat": -63.558172040612476,
        "lon": 171.56965262741846,
        "alt_km": 894.7704191870835,
        "timestamp": "2025-12-14T22:38:41.035781+00:00",
        "meta_object_name": "FENGYUN 1C DEB",
        "meta_object_id": "1999-025APD",
        "meta_epoch": "2025-12-14T01:02:39.341760",
        "meta_mean_motion": 14.09655385,
        "meta_eccentricity": 0.0048197,
        "meta_inclination": 98.6518,
        "meta_ra_of_asc_node": 8.5325,
        "meta_arg_of_pericenter": 28.4384,
        "meta_mean_anomaly": 331.9402,
        "meta_ephemeris_type": 0,
        "meta_classification_type": "U",
        "meta_norad_cat_id": 30646,
        "meta_element_set_no": 999,
        "meta_rev_at_epoch": 96623,
        "meta_bstar": 0.00084305973,
        "meta_mean_motion_dot": 1.452e-05,
        "meta_mean_motion_ddot": 0,
        "tle_line1": "1 30646U 99025APD 25348.04351090  .00001452  00000+0  84306-3 0  9993",
        "tle_line2": "2 30646  98.6518   8.5325 0048197  28.4384 331.9402 14.09655385966233"
      },
      "geometry": {
        "type": "Point",
        "coordinates": [
          171.56965262741846,
          -63.558172040612476
        ]
      }
    },
    {
      "type": "Feature",
      "properties": {
        "norad_id": 30647,
        "name": "FENGYUN 1C DEB",
        "group": "fengyun-1c-debris",
        "lat": -4.393390234687609,
        "lon": -78.14544373031126,
        "alt_km": 728.4638062093982,
        "timestamp": "2025-12-14T22:38:41.035792+00:00",
        "meta_object_name": "FENGYUN 1C DEB",
        "meta_object_id": "1999-025APE",
        "meta_epoch": "2025-12-14T08:23:31.264224",
        "meta_mean_motion": 14.56521068,
        "meta_eccentricity": 0.00293563,
        "meta_inclination": 98.9888,
        "meta_ra_of_asc_node": 280.518,
        "meta_arg_of_pericenter": 168.9929,
        "meta_mean_anomaly": 314.6082,
        "meta_ephemeris_type": 0,
        "meta_classification_type": "U",
        "meta_norad_cat_id": 30647,
        "meta_element_set_no": 999,
        "meta_rev_at_epoch": 98012,
        "meta_bstar": 0.0023684162,
        "meta_mean_motion_dot": 0.00010561,
        "meta_mean_motion_ddot": 0,
        "tle_line1": "1 30647U 99025APE 25348.34966741  .00010561  00000+0  23684-2 0  9994",
        "tle_line2": "2 30647  98.9888 280.5180 0029356 168.9929 314.6082 14.56521068980127"
      },
      "geometry": {
        "type": "Point",
        "coordinates": [
          -78.14544373031126,
          -4.393390234687609
        ]
      }
    },
    {
      "type": "Feature",
      "properties": {
        "norad_id": 30648,
        "name": "FENGYUN 1C DEB",
        "group": "fengyun-1c-debris",
        "lat": 74.20105825033735,
        "lon": 51.13890278205267,
        "alt_km": 707.0546608989689,
        "timestamp": "2025-12-14T22:38:41.035802+00:00",
        "meta_object_name": "FENGYUN 1C DEB",
        "meta_object_id": "1999-025APF",
        "meta_epoch": "2025-12-14T05:50:14.683200",
        "meta_mean_motion": 14.48155874,
        "meta_eccentricity": 0.00343022,
        "meta_inclination": 98.6409,
        "meta_ra_of_asc_node": 82.9317,
        "meta_arg_of_pericenter": 123.2308,
        "meta_mean_anomaly": 264.9525,
        "meta_ephemeris_type": 0,
        "meta_classification_type": "U",
        "meta_norad_cat_id": 30648,
        "meta_element_set_no": 999,
        "meta_rev_at_epoch": 97888,
        "meta_bstar": 0.002289899,
        "meta_mean_motion_dot": 8.557e-05,
        "meta_mean_motion_ddot": 0,
        "tle_line1": "1 30648U 99025APF 25348.24322550  .00008557  00000+0  22899-2 0  9997",
        "tle_line2": "2 30648  98.6409  82.9317 0034302 123.2308 264.9525 14.48155874978880"
      },
      "geometry": {
        "type": "Point",
        "coordinates": [
          51.13890278205267,
          74.20105825033735
        ]
      }
    },
    {
      "type": "Feature",
      "properties": {
        "norad_id": 30649,
        "name": "FENGYUN 1C DEB",
        "group": "fengyun-1c-debris",
        "lat": 76.57202146822391,
        "lon": 43.77307416332207,
        "alt_km": 782.6928188038437,
        "timestamp": "2025-12-14T22:38:41.035812+00:00",
        "meta_object_name": "FENGYUN 1C DEB",
        "meta_object_id": "1999-025APG",
        "meta_epoch": "2025-12-14T05:45:51.592608",
        "meta_mean_motion": 14.29549713,
        "meta_eccentricity": 0.00512773,
        "meta_inclination": 98.809,
        "meta_ra_of_asc_node": 83.5662,
        "meta_arg_of_pericenter": 167.0975,
        "meta_mean_anomaly": 255.6729,
        "meta_ephemeris_type": 0,
        "meta_classification_type": "U",
        "meta_norad_cat_id": 30649,
        "meta_element_set_no": 999,
        "meta_rev_at_epoch": 97085,
        "meta_bstar": 0.0020671154,
        "meta_mean_motion_dot": 5.32e-05,
        "meta_mean_motion_ddot": 0,
        "tle_line1": "1 30649U 99025APG 25348.24018047  .00005320  00000+0  20671-2 0  9992",
        "tle_line2": "2 30649  98.8090  83.5662 0051277 167.0975 255.6729 14.29549713970855"
      },
      "geometry": {
        "type": "Point",
        "coordinates": [
          43.77307416332207,
          76.57202146822391
        ]
      }
    },
    {
      "type": "Feature",
      "properties": {
        "norad_id": 30650,
        "name": "FENGYUN 1C DEB",
        "group": "fengyun-1c-debris",
        "lat": -43.916847247335234,
        "lon": 38.5799760555452,
        "alt_km": 887.1861360037728,
        "timestamp": "2025-12-14T22:38:41.035822+00:00",
        "meta_object_name": "FENGYUN 1C DEB",
        "meta_object_id": "1999-025APH",
        "meta_epoch": "2025-12-13T15:09:31.943808",
        "meta_mean_motion": 14.13942478,
        "meta_eccentricity": 0.00722502,
        "meta_inclination": 99.2051,
        "meta_ra_of_asc_node": 28.2466,
        "meta_arg_of_pericenter": 187.1693,
        "meta_mean_anomaly": 293.4426,
        "meta_ephemeris_type": 0,
        "meta_classification_type": "U",
        "meta_norad_cat_id": 30650,
        "meta_element_set_no": 999,
        "meta_rev_at_epoch": 96311,
        "meta_bstar": 0.0020010135,
        "meta_mean_motion_dot": 3.848e-05,
        "meta_mean_motion_ddot": 0,
        "tle_line1": "1 30650U 99025APH 25347.63161972  .00003848  00000+0  20010-2 0  9992",
        "tle_line2": "2 30650  99.2051  28.2466 0072250 187.1693 293.4426 14.13942478963114"
      },
      "geometry": {
        "type": "Point",
        "coordinates": [
          38.5799760555452,
          -43.916847247335234
        ]
      }
    },
    {
      "type": "Feature",
      "properties": {
        "norad_id": 30652,
        "name": "FENGYUN 1C DEB",
        "group": "fengyun-1c-debris",
        "lat": -31.041224860848697,
        "lon": 27.356799103896513,
        "alt_km": 871.0310573053439,
        "timestamp": "2025-12-14T22:38:41.035833+00:00",
        "meta_object_name": "FENGYUN 1C DEB",
        "meta_object_id": "1999-025APJ",
        "meta_epoch": "2025-12-14T02:40:20.493120",
        "meta_mean_motion": 14.07805602,
        "meta_eccentricity": 0.00073402,
        "meta_inclination": 98.7852,
        "meta_ra_of_asc_node": 21.2071,
        "meta_arg_of_pericenter": 260.7902,
        "meta_mean_anomaly": 172.5441,
        "meta_ephemeris_type": 0,
        "meta_classification_type": "U",
        "meta_norad_cat_id": 30652,
        "meta_element_set_no": 999,
        "meta_rev_at_epoch": 96713,
        "meta_bstar": 0.00021672237,
        "meta_mean_motion_dot": 3.24e-06,
        "meta_mean_motion_ddot": 0,
        "tle_line1": "1 30652U 99025APJ 25348.11134830  .00000324  00000+0  21672-3 0  9993",
        "tle_line2": "2 30652  98.7852  21.2071 0007340 260.7902 172.5441 14.07805602967133"
      },
      "geometry": {
        "type": "Point",
        "coordinates": [
          27.356799103896513,
          -31.041224860848697
        ]
      }
    },
    {
      "type": "Feature",
      "properties": {
        "norad_id": 30654,
        "name": "FENGYUN 1C DEB",
        "group": "fengyun-1c-debris",
        "lat": 47.429254396818,
        "lon": -97.93991047953158,
        "alt_km": 811.9238087165832,
        "timestamp": "2025-12-14T22:38:41.035843+00:00",
        "meta_object_name": "FENGYUN 1C DEB",
        "meta_object_id": "1999-025APL",
        "meta_epoch": "2025-12-14T05:28:23.405952",
        "meta_mean_motion": 14.17106981,
        "meta_eccentricity": 0.00353404,
        "meta_inclination": 99.2412,
        "meta_ra_of_asc_node": 271.5255,
        "meta_arg_of_pericenter": 92.4831,
        "meta_mean_anomaly": 268.0389,
        "meta_ephemeris_type": 0,
        "meta_classification_type": "U",
        "meta_norad_cat_id": 30654,
        "meta_element_set_no": 999,
        "meta_rev_at_epoch": 96701,
        "meta_bstar": 0.0013830149,
        "meta_mean_motion_dot": 2.755e-05,
        "meta_mean_motion_ddot": 0,
        "tle_line1": "1 30654U 99025APL 25348.22804868  .00002755  00000+0  13830-2 0  9998",
        "tle_line2": "2 30654  99.2412 271.5255 0035340  92.4831 268.0389 14.17106981967013"
      },
      "geometry": {
        "type": "Point",
        "coordinates": [
          -97.93991047953158,
          47.429254396818
        ]
      }
    }
  ]
}